*******************************************************************************
 Revised: January 29, 2025             Uranus                               799
 
 PHYSICAL DATA:
  Mass x10^24 (kg)      = 86.813          Density (g/cm^3)       =  1.271
  Equat. radius (1 bar) = 25559+-4 km     Polar radius (km)      = 24973+-20
  Vol. Mean Radius (km) = 25362+-12       Flattening             =  0.02293
  Geometric Albedo      = 0.51
  Sid. rot. period (III)= 17.24+-0.01 h   Sid. rot. rate (rad/s) = -0.000101237
  Mean solar day, h     =~17.24           Rocky core mass (Mc/M) =  0.0012        
  GM (km^3/s^2)         = 5793950.6103    GM 1-sigma (km^3/s^2)  = +-4.3 
  Equ. grav, ge (m/s^2) =  8.87           Pol. grav, gp (m/s^2)  =   9.19+-0.02
  Visual magnitude V(1,0)= -7.11
  Vis. mag. (opposition)=  +5.52          Obliquity to orbit     = 97.77 deg
  Sidereal orbit period = 84.0120465 y    Sidereal orbit period  = 30685.4 d
  Mean daily motion     = 0.01176904 dg/d Mean orbit velocity    =  6.8 km/s
  Atmos. temp. (1 bar)  =  76+-2 K        Escape speed, km/s     =  21.3           
  Aroche(ice)/Rp        =  2.20           Hill's sphere rad., Rp = 2700
                                 Perihelion   Aphelion    Mean
  Solar Constant (W/m^2)         4.09         3.39        3.71
  Maximum Planetary IR (W/m^2)   0.72         0.55        0.63
  Minimum Planetary IR (W/m^2)   0.72         0.55        0.63
*******************************************************************************


*******************************************************************************
Ephemeris / WWW_USER Mon Mar 10 14:07:39 2025 Pasadena, USA      / Horizons
*******************************************************************************
Target body name: Uranus (799)                    {source: ura183_merged}
Center body name: Solar System Barycenter (0)     {source: DE441}
Center-site name: BODY CENTER
*******************************************************************************
Start time      : A.D. 2025-Mar-10 00:00:00.0000 TDB
Stop  time      : A.D. 2025-Apr-09 00:00:00.0000 TDB
Step-size       : 1440 minutes
*******************************************************************************
Center geodetic : 0.0, 0.0, 0.0                   {E-lon(deg),Lat(deg),Alt(km)}
Center cylindric: 0.0, 0.0, 0.0                   {E-lon(deg),Dxy(km),Dz(km)}
Center radii    : (undefined)
Output units    : KM-S
Calendar mode   : Mixed Julian/Gregorian
Output type     : GEOMETRIC cartesian states
Output format   : 3 (position, velocity, LT, range, range-rate)
Reference frame : Ecliptic of J2000.0
*******************************************************************************
JDTDB
   X     Y     Z
   VX    VY    VZ
   LT    RG    RR
*******************************************************************************
$$SOE
2460768.500000000 = A.D. 2025-Apr-03 00:00:00.0000 TDB 
 X = 1.614987689596380E+09 Y = 2.434772117573550E+09 Z =-1.187979669105136E+07
 VX=-5.725487540016127E+00 VY= 3.446897904279608E+00 VZ= 8.681743855612201E-02
 LT= 9.745805384847636E+03 RG= 2.921718951513109E+09 RR=-2.927086322512970E-01
2460769.500000000 = A.D. 2025-Apr-04 00:00:00.0000 TDB 
 X = 1.614492978090365E+09 Y = 2.435069882532878E+09 Z =-1.187228092881870E+07
 VX=-5.726093800390135E+00 VY= 3.445785585138804E+00 VZ= 8.710141708525154E-02
 LT= 9.745721031311765E+03 RG= 2.921693662959249E+09 RR=-2.926534139811612E-01
2460770.500000000 = A.D. 2025-Apr-05 00:00:00.0000 TDB 
 X = 1.613998219502794E+09 Y = 2.435367547759098E+09 Z =-1.186475887827706E+07
 VX=-5.726724048651382E+00 VY= 3.444623364515844E+00 VZ= 8.698445698740098E-02
 LT= 9.745636693610548E+03 RG= 2.921668379152499E+09 RR=-2.926514581948743E-01
2460771.500000000 = A.D. 2025-Apr-06 00:00:00.0000 TDB 
 X = 1.613503391884329E+09 Y = 2.435665116460255E+09 Z =-1.185724166507912E+07
 VX=-5.727576185345765E+00 VY= 3.443541966309981E+00 VZ= 8.709829803071067E-02
 LT= 9.745552340360513E+03 RG= 2.921643090684330E+09 RR=-2.927056033018671E-01
2460772.500000000 = A.D. 2025-Apr-07 00:00:00.0000 TDB 
 X = 1.613008505534927E+09 Y = 2.435962588905686E+09 Z =-1.184971102452755E+07
 VX=-5.728122239012654E+00 VY= 3.442384482536542E+00 VZ= 8.715348198320294E-02
 LT= 9.745467991049993E+03 RG= 2.921617803397199E+09 RR=-2.926538915407712E-01
2460773.500000000 = A.D. 2025-Apr-08 00:00:00.0000 TDB 
 X = 1.612513565584211E+09 Y = 2.436259961332793E+09 Z =-1.184218615787804E+07
 VX=-5.728855651851583E+00 VY= 3.441246702909002E+00 VZ= 8.705605528603799E-02
 LT= 9.745383644918600E+03 RG= 2.921592517063146E+09 RR=-2.926886016915261E-01
2460774.500000000 = A.D. 2025-Apr-09 00:00:00.0000 TDB 
 X = 1.612018562013429E+09 Y = 2.436557236477135E+09 Z =-1.183466293567479E+07
 VX=-5.729516928786160E+00 VY= 3.440108819401237E+00 VZ= 8.706610189266173E-02
 LT= 9.745299291070070E+03 RG= 2.921567228415553E+09 RR=-2.926840060515515E-01
